{
  "type": "FeatureCollection",
  "features": [
    {
      "type": "Feature",
      "properties": {
        "norad_id": 36744,
        "name": "COMS 1",
        "group": "weather",
        "lat": -3.1710921283815487,
        "lon": -54.8599672638281,
        "alt_km": 35783.73803497621,
        "timestamp": "2025-12-03T06:58:42.883879+00:00",
        "meta_object_name": "COMS 1",
        "meta_object_id": "2010-032A",
        "meta_epoch": "2025-12-02T15:57:07.381728",
        "meta_mean_motion": 1.00270136,
        "meta_eccentricity": 0.00010793,
        "meta_inclination": 4.3152,
        "meta_ra_of_asc_node": 78.1083,
        "meta_arg_of_pericenter": 183.7473,
        "meta_mean_anomaly": 177.3637,
        "meta_ephemeris_type": 0,
        "meta_classification_type": "U",
        "meta_norad_cat_id": 36744,
        "meta_element_set_no": 999,
        "meta_rev_at_epoch": 4912,
        "meta_bstar": 0,
        "meta_mean_motion_dot": -3.25e-06,
        "meta_mean_motion_ddot": 0,
        "tle_line1": "1 36744U 10032A   25336.66466877 -.00000325  00000+0  00000+0 0  9998",
        "tle_line2": "2 36744   4.3152  78.1083 0001079 183.7473 177.3637  1.00270136 49128"
      },
      "geometry": {
        "type": "Point",
        "coordinates": [
          -54.8599672638281,
          -3.1710921283815487
        ]
      }
    },
    {
      "type": "Feature",
      "properties": {
        "norad_id": 37214,
        "name": "FENGYUN 3B",
        "group": "weather",
        "lat": 3.985613896102585,
        "lon": -162.16635184956905,
        "alt_km": 859.6538196291231,
        "timestamp": "2025-12-03T06:58:42.883890+00:00",
        "meta_object_name": "FENGYUN 3B",
        "meta_object_id": "2010-059A",
        "meta_epoch": "2025-12-02T20:46:58.079136",
        "meta_mean_motion": 14.14785246,
        "meta_eccentricity": 0.0022467,
        "meta_inclination": 98.9922,
        "meta_ra_of_asc_node": 16.7737,
        "meta_arg_of_pericenter": 25.5822,
        "meta_mean_anomaly": 147.6205,
        "meta_ephemeris_type": 0,
        "meta_classification_type": "U",
        "meta_norad_cat_id": 37214,
        "meta_element_set_no": 999,
        "meta_rev_at_epoch": 77966,
        "meta_bstar": 9.1269e-05,
        "meta_mean_motion_dot": 1.31e-06,
        "meta_mean_motion_ddot": 0,
        "tle_line1": "1 37214U 10059A   25336.86594999  .00000131  00000+0  91269-4 0  9995",
        "tle_line2": "2 37214  98.9922  16.7737 0022467  25.5822 147.6205 14.14785246779666"
      },
      "geometry": {
        "type": "Point",
        "coordinates": [
          -162.16635184956905,
          3.985613896102585
        ]
      }
    },
    {
      "type": "Feature",
      "properties": {
        "norad_id": 37849,
        "name": "SUOMI NPP",
        "group": "weather",
        "lat": -35.82768090242817,
        "lon": 88.3148176827236,
        "alt_km": 833.0148488242194,
        "timestamp": "2025-12-03T06:58:42.883901+00:00",
        "meta_object_name": "SUOMI NPP",
        "meta_object_id": "2011-061A",
        "meta_epoch": "2025-12-02T19:48:47.551104",
        "meta_mean_motion": 14.19509572,
        "meta_eccentricity": 0.0001872,
        "meta_inclination": 98.7758,
        "meta_ra_of_asc_node": 274.2571,
        "meta_arg_of_pericenter": 137.9244,
        "meta_mean_anomaly": 222.2076,
        "meta_ephemeris_type": 0,
        "meta_classification_type": "U",
        "meta_norad_cat_id": 37849,
        "meta_element_set_no": 999,
        "meta_rev_at_epoch": 73058,
        "meta_bstar": 8.386e-05,
        "meta_mean_motion_dot": 1.33e-06,
        "meta_mean_motion_ddot": 0,
        "tle_line1": "1 37849U 11061A   25336.82555036  .00000133  00000+0  83860-4 0  9998",
        "tle_line2": "2 37849  98.7758 274.2571 0001872 137.9244 222.2076 14.19509572730580"
      },
      "geometry": {
        "type": "Point",
        "coordinates": [
          88.3148176827236,
          -35.82768090242817
        ]
      }
    },
    {
      "type": "Feature",
      "properties": {
        "norad_id": 38552,
        "name": "METEOSAT-10 (MSG-3)",
        "group": "weather",
        "lat": 3.7841160695209206,
        "lon": 177.19731566458685,
        "alt_km": 35786.087086209925,
        "timestamp": "2025-12-03T06:58:42.883913+00:00",
        "meta_object_name": "METEOSAT-10 (MSG-3)",
        "meta_object_id": "2012-035B",
        "meta_epoch": "2025-12-02T01:48:01.931904",
        "meta_mean_motion": 1.002722,
        "meta_eccentricity": 6.876e-05,
        "meta_inclination": 4.2018,
        "meta_ra_of_asc_node": 61.7375,
        "meta_arg_of_pericenter": 218.9493,
        "meta_mean_anomaly": 177.6056,
        "meta_ephemeris_type": 0,
        "meta_classification_type": "U",
        "meta_norad_cat_id": 38552,
        "meta_element_set_no": 999,
        "meta_rev_at_epoch": 4888,
        "meta_bstar": 0,
        "meta_mean_motion_dot": 1.3e-07,
        "meta_mean_motion_ddot": 0,
        "tle_line1": "1 38552U 12035B   25336.07502236  .00000013  00000+0  00000+0 0  9990",
        "tle_line2": "2 38552   4.2018  61.7375 0000687 218.9493 177.6056  1.00272200 48880"
      },
      "geometry": {
        "type": "Point",
        "coordinates": [
          177.19731566458685,
          3.7841160695209206
        ]
      }
    },
    {
      "type": "Feature",
      "properties": {
        "norad_id": 38771,
        "name": "METOP-B",
        "group": "weather",
        "lat": 4.0057563749704395,
        "lon": 26.796074010407654,
        "alt_km": 824.6714916821784,
        "timestamp": "2025-12-03T06:58:42.883925+00:00",
        "meta_object_name": "METOP-B",
        "meta_object_id": "2012-049A",
        "meta_epoch": "2025-12-02T19:08:00.830112",
        "meta_mean_motion": 14.21402274,
        "meta_eccentricity": 0.0002463,
        "meta_inclination": 98.6814,
        "meta_ra_of_asc_node": 26.9239,
        "meta_arg_of_pericenter": 166.7431,
        "meta_mean_anomaly": 193.3811,
        "meta_ephemeris_type": 0,
        "meta_classification_type": "U",
        "meta_norad_cat_id": 38771,
        "meta_element_set_no": 999,
        "meta_rev_at_epoch": 68536,
        "meta_bstar": 0.00011392,
        "meta_mean_motion_dot": 2.05e-06,
        "meta_mean_motion_ddot": 0,
        "tle_line1": "1 38771U 12049A   25336.79723183  .00000205  00000+0  11392-3 0  9996",
        "tle_line2": "2 38771  98.6814  26.9239 0002463 166.7431 193.3811 14.21402274685369"
      },
      "geometry": {
        "type": "Point",
        "coordinates": [
          26.796074010407654,
          4.0057563749704395
        ]
      }
    },
    {
      "type": "Feature",
      "properties": {
        "norad_id": 39216,
        "name": "INSAT-3D",
        "group": "weather",
        "lat": -0.9446788117071427,
        "lon": -53.436405682956355,
        "alt_km": 35782.911957308665,
        "timestamp": "2025-12-03T06:58:42.883937+00:00",
        "meta_object_name": "INSAT-3D",
        "meta_object_id": "2013-038B",
        "meta_epoch": "2025-12-02T15:59:05.607168",
        "meta_mean_motion": 1.00274208,
        "meta_eccentricity": 0.00017309,
        "meta_inclination": 1.4165,
        "meta_ra_of_asc_node": 85.1091,
        "meta_arg_of_pericenter": 152.9868,
        "meta_mean_anomaly": 202.9548,
        "meta_ephemeris_type": 0,
        "meta_classification_type": "U",
        "meta_norad_cat_id": 39216,
        "meta_element_set_no": 999,
        "meta_rev_at_epoch": 4510,
        "meta_bstar": 0,
        "meta_mean_motion_dot": -3.19e-06,
        "meta_mean_motion_ddot": 0,
        "tle_line1": "1 39216U 13038B   25336.66603712 -.00000319  00000+0  00000+0 0  9998",
        "tle_line2": "2 39216   1.4165  85.1091 0001730 152.9868 202.9548  1.00274208 45108"
      },
      "geometry": {
        "type": "Point",
        "coordinates": [
          -53.436405682956355,
          -0.9446788117071427
        ]
      }
    },
    {
      "type": "Feature",
      "properties": {
        "norad_id": 39260,
        "name": "FENGYUN 3C",
        "group": "weather",
        "lat": 80.2961799232877,
        "lon": -105.25403767037508,
        "alt_km": 840.0892355888145,
        "timestamp": "2025-12-03T06:58:42.883948+00:00",
        "meta_object_name": "FENGYUN 3C",
        "meta_object_id": "2013-052A",
        "meta_epoch": "2025-12-02T20:23:55.877856",
        "meta_mean_motion": 14.15691286,
        "meta_eccentricity": 0.0013803,
        "meta_inclination": 98.4753,
        "meta_ra_of_asc_node": 315.0127,
        "meta_arg_of_pericenter": 225.8198,
        "meta_mean_anomaly": 134.1843,
        "meta_ephemeris_type": 0,
        "meta_classification_type": "U",
        "meta_norad_cat_id": 39260,
        "meta_element_set_no": 999,
        "meta_rev_at_epoch": 63078,
        "meta_bstar": 0.00010917,
        "meta_mean_motion_dot": 1.73e-06,
        "meta_mean_motion_ddot": 0,
        "tle_line1": "1 39260U 13052A   25336.84995229  .00000173  00000+0  10917-3 0  9999",
        "tle_line2": "2 39260  98.4753 315.0127 0013803 225.8198 134.1843 14.15691286630788"
      },
      "geometry": {
        "type": "Point",
        "coordinates": [
          -105.25403767037508,
          80.2961799232877
        ]
      }
    }
  ]
}